[{"OBJECT_NAME":"STARLINK-32257","OBJECT_ID":"2024-225J","EPOCH":"2026-03-09T15:45:01.258848","MEAN_MOTION":14.98365212,"ECCENTRICITY":0.00026278,"INCLINATION":70.0044,"RA_OF_ASC_NODE":164.4004,"ARG_OF_PERICENTER":234.9883,"MEAN_ANOMALY":125.103,"EPHEMERIS_TYPE":0,"CLASSIFICATION_TYPE":"U","NORAD_CAT_ID":62171,"ELEMENT_SET_NO":999,"REV_AT_EPOCH":6987,"BSTAR":0.0011832549,"MEAN_MOTION_DOT":0.00014066,"MEAN_MOTION_DDOT":0},{"OBJECT_NAME":"PEGASUS DEB","OBJECT_ID":"1994-029AGJ","EPOCH":"2026-03-09T15:38:30.684192","MEAN_MOTION":14.32744369,"ECCENTRICITY":0.03222105,"INCLINATION":81.8776,"RA_OF_ASC_NODE":39.0531,"ARG_OF_PERICENTER":160.6697,"MEAN_ANOMALY":200.7053,"EPHEMERIS_TYPE":0,"CLASSIFICATION_TYPE":"U","NORAD_CAT_ID":40242,"ELEMENT_SET_NO":999,"REV_AT_EPOCH":58831,"BSTAR":0.00090056076,"MEAN_MOTION_DOT":4.406e-5,"MEAN_MOTION_DDOT":0}]
